OUFTI-1                 
1 41458U 16025C   21038.81852089  .00004555  00000-0  22306-3 0  9996
2 41458  98.1239 168.3200 0161410 136.5344 224.8739 15.07953055262932
E-ST@R-II               
1 41459U 16025D   21039.13673228  .00002970  00000-0  14825-3 0  9995
2 41459  98.1220 167.8600 0163344 138.0808 223.3033 15.07428242262937
AAUSAT 4                
1 41460U 16025E   21039.08450794  .00004704  00000-0  22339-3 0  9998
2 41460  98.1222 171.0621 0150863 124.3109 237.2453 15.10201917263185
AIST-2D (RS-48)         
1 41465U 16026B   21039.15450189  .00001855  00000-0  55629-4 0  9993
2 41465  97.1247 287.5929 0012789 115.6503  36.5436 15.35628339267582
SAMSAT-218D             
1 41466U 16026C   21039.20332859  .00011540  00000-0  19970-3 0  9993
2 41466  97.1667 307.8166 0007413  65.3853  88.1043 15.51063003268773
NUSAT-1 (FRESCO)        
1 41557U 16033B   21039.22242091  .00001729  00000-0  64267-4 0  9990
2 41557  97.3959 133.9553 0012330 340.4857 100.9484 15.28856439261786
NUSAT-2 (BATATA)        
1 41558U 16033C   21039.20442774  .00001911  00000-0  66435-4 0  9991
2 41558  97.4036 137.1784 0011187 335.5999 111.2161 15.30931690261948
CARTOSAT-2C             
1 41599U 16040A   21039.16491672  .00000464  00000-0  25176-4 0  9999
2 41599  97.4189 100.9863 0015586 107.1477 329.8120 15.19270452256887
SATHYABAMASAT           
1 41600U 16040B   21038.69044162  .00003127  00000-0  12597-3 0  9998
2 41600  97.2923  99.2667 0014844  79.1349 281.1559 15.25480354257369
LAPAN-A3                
1 41603U 16040E   21039.16350803  .00000134  00000-0  92842-5 0  9994
2 41603  97.2774  90.8643 0015154  95.5450 339.8688 15.19956417256945
BIROS                   
1 41604U 16040F   21038.79038484  .00000875  00000-0  40763-4 0  9997
2 41604  97.2830  95.4277 0013878  79.3591 280.9208 15.22359044257177
SWAYAM                  
1 41607U 16040J   21039.14702344  .00002261  00000-0  92696-4 0  9996
2 41607  97.2875  98.6479 0014453  77.7923 282.4933 15.25176636257336
BEESAT-4                
1 41619U 16040W   21038.68914378  .00002744  00000-0  11296-3 0  9991
2 41619  97.2898  98.3388 0012431  73.5331 286.7272 15.24887799245238
3CAT-2                  
1 41732U 16051B   21039.25577469  .00001532  00000-0  58093-4 0  9990
2 41732  97.3767 320.6926 0011455 242.6368 275.8747 15.28372972249767
PRATHAM                 
1 41783U 16059A   21039.14359634  .00000059  00000-0  20568-4 0  9993
2 41783  97.9847  93.5516 0032266 294.5749  65.2092 14.63110423233341
ALSAT 1N                
1 41789U 16059G   21039.09343849  .00000066  00000-0  21380-4 0  9995
2 41789  97.9879  96.8825 0026884 280.4045  79.4140 14.64386281233511
LISHUI 1-01             
1 41845U 16066E   21039.09218615  .00006369  00000-0  81056-3 0  9995
2 41845  98.7294 135.8231 0281932 158.1747 203.1721 14.57759373224548
CARTOSAT-2D             
1 41948U 17008A   21038.92124504  .00000524  00000-0  28081-4 0  9997
2 41948  97.4608 101.0000 0006010 247.2661 112.7903 15.19254003220714
NAYIF-1 (EO-88)         
1 42017U 17008BX  21039.14454532  .00002333  00000-0  89474-4 0  9990
2 42017  97.3330 109.0183 0005635 191.9639 168.1468 15.27472144221512
ZHUHAI-1 02 (CAS-4B)    
1 42759U 17034B   21038.80022299  .00000234  00000-0  27515-4 0  9991
2 42759  43.0160 173.7897 0008348  66.6725  86.2232 15.10062442201540
ZHUHAI-1 01 (CAS-4A)    
1 42761U 17034D   21038.79822427  .00000218  00000-0  26482-4 0  9997
2 42761  43.0168 172.9449 0008949  67.2561  85.3417 15.10143205201549
UCLSAT                  
1 42765U 17036A   21038.69964164  .00002198  00000-0  92716-4 0  9999
2 42765  97.2697  92.2723 0009328 277.3373  82.6805 15.24302674202406
NIUSAT                  
1 42766U 17036B   21039.10470133  .00001297  00000-0  59156-4 0  9995
2 42766  97.2697  89.4688 0013479 271.3750  88.5942 15.22308541201537
CARTOSAT-2E             
1 42767U 17036C   21038.93232064  .00000538  00000-0  28691-4 0  9992
2 42767  97.3919  99.1052 0007874 307.6248  52.4271 15.19290318201281
LITUANICASAT-2          
1 42768U 17036D   21039.15011259  .00003003  00000-0  12166-3 0  9998
2 42768  97.2769  93.1438 0012458 262.0422  97.9402 15.25352737201751
AALTO-1                 
1 42775U 17036L   21039.14194428  .00001106  00000-0  50859-4 0  9999
2 42775  97.2671  89.8074 0011951 270.4516  89.5351 15.22328096201526
URSA MAIOR              
1 42776U 17036M   21039.09970131  .00001170  00000-0  53292-4 0  9992
2 42776  97.2684  90.1618 0011736 269.9872  90.0020 15.22561524201535
COMPASS 2               
1 42777U 17036N   21038.68667346  .00003275  00000-0  13412-3 0  9995
2 42777  97.2755  92.9816 0010180 265.6666  94.3409 15.24948436201633
MAX VALIER SAT          
1 42778U 17036P   21039.10226246  .00001189  00000-0  53112-4 0  9998
2 42778  97.2746  91.8523 0010293 272.3532  87.6527 15.23195881201597
PEGASUS                 
1 42784U 17036V   21039.10478006  .00001562  00000-0  67427-4 0  9997
2 42784  97.2703  92.2539 0009901 277.1948  82.8164 15.23924304201658
NUDTSAT                 
1 42787U 17036Y   21039.19845567  .00002382  00000-0  96466-4 0  9995
2 42787  97.2749  94.3501 0009085 272.3806  87.6389 15.25595666201622
SUCHAI                  
1 42788U 17036Z   21038.64146088  .00002328  00000-0  97152-4 0  9990
2 42788  97.2714  92.6336 0009412 276.2159  83.8007 15.24611660201706
SKCUBE                  
1 42789U 17036AA  21038.65010327  .00002212  00000-0  93024-4 0  9994
2 42789  97.2708  92.4123 0009327 276.9038  83.1138 15.24393502201610
VZLUSAT-1               
1 42790U 17036AB  21038.66593820  .00003302  00000-0  13277-3 0  9993
2 42790  97.2741  93.8206 0008723 271.9544  88.0695 15.25571030201697
ROBUSTA-1B              
1 42792U 17036AD  21039.09782408  .00001856  00000-0  78021-4 0  9996
2 42792  97.2710  93.1772 0008898 275.1608  84.8614 15.24609997201717
D-SAT                   
1 42794U 17036AF  21039.01315448  .00000534  00000-0  51576-4 0  9994
2 42794  97.4728  65.7091 0124425 298.8031  60.0740 14.91447526197795
NORSAT 2                
1 42828U 17042D   21038.64396320  .00000403  00000-0  45199-4 0  9994
2 42828  97.4966 276.1016 0013311 214.2948 145.7414 14.91721857194385
TECHNOSAT               
1 42829U 17042E   21039.08657678  .00000123  00000-0  17693-4 0  9997
2 42829  97.4887 275.3381 0013238 214.1601 145.8768 14.91214790194406
2017-042F               
1 42830U 17042F   21039.10314616  .00000582  00000-0  61610-4 0  9991
2 42830  97.4994 277.5047 0013214 207.3512 152.7014 14.92621608194502
FLYING LAPTOP           
1 42831U 17042G   21038.79298242  .00000025  00000-0  77562-5 0  9998
2 42831  97.4899 275.2483 0013150 215.4787 144.5566 14.91232656194364
CORVUS BC2              
1 42846U 17042X   21038.61596770  .00000330  00000-0  37548-4 0  9990
2 42846  97.4923 277.1212 0008807 204.6692 155.4108 14.92224734194471
CORVUS BC1              
1 42847U 17042Y   21039.13204460  .00000377  00000-0  42088-4 0  9997
2 42847  97.4927 277.8257 0008532 201.3955 158.6909 14.92326131194550
SIMPL                   
1 42983U 98067NF  21039.14288818  .00008006  00000-0  87108-4 0  9993
2 42983  51.6356 195.2656 0003314 216.6542 143.4227 15.64473775187148
CZ-4C R/B               
1 43012U 17072C   21039.03357286  .00000094  00000-0  30715-4 0  9999
2 43012  98.7325  47.6557 0128053  28.6087 332.2058 14.56141082171903
RADFXSAT (FOX-1B)       
1 43017U 17073E   21038.67775847  .00001489  00000-0  11991-3 0  9994
2 43017  97.7164 307.7603 0256006   4.0106 356.3076 14.79303762173932
EAGLESAT 1              
1 43018U 17073F   21038.73073726  .00002355  00000-0  18370-3 0  9990
2 43018  97.7165 308.5013 0253138   1.1317 359.0416 14.80207376173858
ECAMSAT                 
1 43019U 98067NG  21039.07347040  .00021107  00000-0  15764-3 0  9994
2 43019  51.6392 170.8863 0003231 221.7099 138.3653 15.72672307269788
INS-1C                  
1 43116U 18004F   21039.11429044  .00001621  00000-0  68605-4 0  9997
2 43116  97.4279 114.7774 0007730 302.4712  57.5778 15.24623454170937
FLOCK 3P'-3             
1 43119U 18004J   21039.13993113  .00001020  00000-0  45191-4 0  9993
2 43119  97.4267 113.8780 0008574 310.6436  49.4055 15.23903121170888
FLOCK 3P'-2             
1 43120U 18004K   21038.76183010  .00001085  00000-0  48223-4 0  9990
2 43120  97.4273 113.3486 0008603 312.6513  47.3998 15.23632053170815
FLOCK 3P'-1             
1 43121U 18004L   21038.76560516  .00005146  00000-0  20288-3 0  9993
2 43121  97.4276 114.6802 0007817 307.8655  52.1875 15.25997382170835
FLOCK 3P'-4             
1 43122U 18004M   21039.15358995  .00000967  00000-0  43281-4 0  9999
2 43122  97.4282 113.8223 0008453 313.7516  46.3021 15.23651254170875
MICROMAS-2A             
1 43131U 18004W   21038.76098578  .00003762  00000-0  14700-3 0  9992
2 43131  97.4250 115.5184 0007278 307.1134  52.9439 15.26475233170973
PICSAT                  
1 43132U 18004X   21039.17269182  .00002038  00000-0  83832-4 0  9998
2 43132  97.4231 114.8509 0007862 310.2885  49.7665 15.25280871170979
CNUSAIL-1               
1 43133U 18004Y   21038.72732199  .00001684  00000-0  71532-4 0  9992
2 43133  97.4210 113.6439 0008080 314.5392  45.5185 15.24428169170850
2018-004Z               
1 43134U 18004Z   21039.19182744  .00001596  00000-0  66958-4 0  9998
2 43134  97.4224 114.6414 0007799 311.7898  48.2673 15.24945789170951
FOX-1D (AO-92)          
1 43137U 18004AC  21039.13779168  .00001434  00000-0  60721-4 0  9990
2 43137  97.4209 114.4494 0007630 314.1141  45.9468 15.24785771170943
STEP CUBE LAB           
1 43138U 18004AD  21039.18191280  .00002539  00000-0  10100-3 0  9991
2 43138  97.4248 115.8560 0007198 310.4898  49.5712 15.26184681171031
XIAOXIANG-2             
1 43155U 18008A   21039.23235015  .00000960  00000-0  59214-4 0  9991
2 43155  97.4195 108.0031 0018709  58.9288  13.5544 15.12109409168541
